{"type": "FeatureCollection", "features": [ {"type": "Feature", "properties": {"norad_id": 33153, "name": "INTELSAT 25 (IS-25)", "group": "intelsat", "lat": 2.1832391373347106, "lon": 162.13435160623982, "alt_km": 35791.94501365701, "timestamp": "2025-12-09T07:41:32.871057+00:00", "meta": {"OBJECT_NAME": "INTELSAT 25 (IS-25)", "OBJECT_ID": "2008-034A", "EPOCH": "2025-12-08T22:00:53.156160", "MEAN_MOTION": 1.00270375, "ECCENTRICITY": 0.00054101, "INCLINATION": 2.2179, "RA_OF_ASC_NODE": 82.6875, "ARG_OF_PERICENTER": 183.9917, "MEAN_ANOMALY": 109.9627, "EPHEMERIS_TYPE": 0, "CLASSIFICATION_TYPE": "U", "NORAD_CAT_ID": 33153, "ELEMENT_SET_NO": 999, "REV_AT_EPOCH": 6378, "BSTAR": 0, "MEAN_MOTION_DOT": -2.22e-06, "MEAN_MOTION_DDOT": 0}, "tle": {"line1": "1 33153U 08034A   25342.91728190 -.00000222  00000+0  00000+0 0  9998", "line2": "2 33153   2.2179  82.6875 0005410 183.9917 109.9627  1.00270375 63785"}}, "geometry": {"type": "Point", "coordinates": [162.13435160623982, 2.1832391373347106]}}, {"type": "Feature", "properties": {"norad_id": 33376, "name": "GALAXY 19 (G-19)", "group": "intelsat", "lat": 0.025455220835345984, "lon": 96.68591333446443, "alt_km": 35800.871340594225, "timestamp": "2025-12-09T07:41:32.871070+00:00", "meta": {"OBJECT_NAME": "GALAXY 19 (G-19)", "OBJECT_ID": "2008-045A", "EPOCH": "2025-12-08T21:42:09.950112", "MEAN_MOTION": 1.00269843, "ECCENTRICITY": 0.00033779, "INCLINATION": 0.0176, "RA_OF_ASC_NODE": 311.8736, "ARG_OF_PERICENTER": 319.5286, "MEAN_ANOMALY": 35.0381, "EPHEMERIS_TYPE": 0, "CLASSIFICATION_TYPE": "U", "NORAD_CAT_ID": 33376, "ELEMENT_SET_NO": 999, "REV_AT_EPOCH": 6299, "BSTAR": 0, "MEAN_MOTION_DOT": -1.37e-06, "MEAN_MOTION_DDOT": 0}, "tle": {"line1": "1 33376U 08045A   25342.90428183 -.00000137  00000+0  00000+0 0  9990", "line2": "2 33376   0.0176 311.8736 0003377 319.5286  35.0381  1.00269843 62990"}}, "geometry": {"type": "Point", "coordinates": [96.68591333446443, 0.025455220835345984]}}, {"type": "Feature", "properties": {"norad_id": 35493, "name": "FM-5", "group": "intelsat", "lat": 0.011624777142881702, "lon": 107.54850031771416, "alt_km": 35785.112841619404, "timestamp": "2025-12-09T07:41:32.871082+00:00", "meta": {"OBJECT_NAME": "FM-5", "OBJECT_ID": "2009-034A", "EPOCH": "2025-12-08T21:45:17.151264", "MEAN_MOTION": 1.00271463, "ECCENTRICITY": 8.072e-05, "INCLINATION": 0.0206, "RA_OF_ASC_NODE": 287.6939, "ARG_OF_PERICENTER": 251.0573, "MEAN_ANOMALY": 139.3365, "EPHEMERIS_TYPE": 0, "CLASSIFICATION_TYPE": "U", "NORAD_CAT_ID": 35493, "ELEMENT_SET_NO": 999, "REV_AT_EPOCH": 4473, "BSTAR": 0, "MEAN_MOTION_DOT": -1.98e-06, "MEAN_MOTION_DDOT": 0}, "tle": {"line1": "1 35493U 09034A   25342.90644851 -.00000198  00000+0  00000+0 0  9990", "line2": "2 35493   0.0206 287.6939 0000807 251.0573 139.3365  1.00271463 44738"}}, "geometry": {"type": "Point", "coordinates": [107.54850031771416, 0.011624777142881702]}}, {"type": "Feature", "properties": {"norad_id": 36097, "name": "INTELSAT 14 (IS-14)", "group": "intelsat", "lat": 0.006178123454474424, "lon": 148.67524548641387, "alt_km": 35791.48037009713, "timestamp": "2025-12-09T07:41:32.871094+00:00", "meta": {"OBJECT_NAME": "INTELSAT 14 (IS-14)", "OBJECT_ID": "2009-064A", "EPOCH": "2025-12-08T21:57:01.027008", "MEAN_MOTION": 1.00270505, "ECCENTRICITY": 0.00026872, "INCLINATION": 0.0103, "RA_OF_ASC_NODE": 338.873, "ARG_OF_PERICENTER": 285.8937, "MEAN_ANOMALY": 97.4091, "EPHEMERIS_TYPE": 0, "CLASSIFICATION_TYPE": "U", "NORAD_CAT_ID": 36097, "ELEMENT_SET_NO": 999, "REV_AT_EPOCH": 5869, "BSTAR": 0, "MEAN_MOTION_DOT": -2.71e-06, "MEAN_MOTION_DDOT": 0}, "tle": {"line1": "1 36097U 09064A   25342.91459522 -.00000271  00000+0  00000+0 0  9996", "line2": "2 36097   0.0103 338.8730 0002687 285.8937  97.4091  1.00270505 58696"}}, "geometry": {"type": "Point", "coordinates": [148.67524548641387, 0.006178123454474424]}}, {"type": "Feature", "properties": {"norad_id": 36106, "name": "INTELSAT 15 (IS-15)", "group": "intelsat", "lat": -0.016843950561394393, "lon": -81.14360009542979, "alt_km": 35774.003663402196, "timestamp": "2025-12-09T07:41:32.871106+00:00", "meta": {"OBJECT_NAME": "INTELSAT 15 (IS-15)", "OBJECT_ID": "2009-067A", "EPOCH": "2025-12-08T21:53:38.527008", "MEAN_MOTION": 1.00275181, "ECCENTRICITY": 0.00026659, "INCLINATION": 0.0293, "RA_OF_ASC_NODE": 284.7842, "ARG_OF_PERICENTER": 345.4926, "MEAN_ANOMALY": 221.1948, "EPHEMERIS_TYPE": 0, "CLASSIFICATION_TYPE": "U", "NORAD_CAT_ID": 36106, "ELEMENT_SET_NO": 999, "REV_AT_EPOCH": 3932, "BSTAR": 0, "MEAN_MOTION_DOT": -1.84e-06, "MEAN_MOTION_DDOT": 0}, "tle": {"line1": "1 36106U 09067A   25342.91225147 -.00000184  00000+0  00000+0 0  9997", "line2": "2 36106   0.0293 284.7842 0002665 345.4926 221.1948  1.00275181 39328"}}, "geometry": {"type": "Point", "coordinates": [-81.14360009542979, -0.016843950561394393]}}, {"type": "Feature", "properties": {"norad_id": 36131, "name": "DIRECTV 12", "group": "intelsat", "lat": 0.009257379885231336, "lon": 90.97527868050894, "alt_km": 35786.98014572845, "timestamp": "2025-12-09T07:41:32.871118+00:00", "meta": {"OBJECT_NAME": "DIRECTV 12", "OBJECT_ID": "2009-075A", "EPOCH": "2025-12-08T21:40:32.604960", "MEAN_MOTION": 1.00270047, "ECCENTRICITY": 3.553e-05, "INCLINATION": 0.0409, "RA_OF_ASC_NODE": 138.4209, "ARG_OF_PERICENTER": 206.7884, "MEAN_ANOMALY": 315.1057, "EPHEMERIS_TYPE": 0, "CLASSIFICATION_TYPE": "U", "NORAD_CAT_ID": 36131, "ELEMENT_SET_NO": 999, "REV_AT_EPOCH": 4464, "BSTAR": 0, "MEAN_MOTION_DOT": -1.01e-06, "MEAN_MOTION_DDOT": 0}, "tle": {"line1": "1 36131U 09075A   25342.90315515 -.00000101  00000+0  00000+0 0  9991", "line2": "2 36131   0.0409 138.4209 0000355 206.7884 315.1057  1.00270047 44645"}}, "geometry": {"type": "Point", "coordinates": [90.97527868050894, 0.009257379885231336]}}, {"type": "Feature", "properties": {"norad_id": 36397, "name": "INTELSAT 16 (IS-16)", "group": "intelsat", "lat": 0.013098083498606358, "lon": 117.48023925340105, "alt_km": 35794.40871551434, "timestamp": "2025-12-09T07:41:32.871129+00:00", "meta": {"OBJECT_NAME": "INTELSAT 16 (IS-16)", "OBJECT_ID": "2010-006A", "EPOCH": "2025-12-08T21:48:09.375840", "MEAN_MOTION": 1.00270382, "ECCENTRICITY": 0.00023044, "INCLINATION": 0.0166, "RA_OF_ASC_NODE": 307.3577, "ARG_OF_PERICENTER": 314.1597, "MEAN_ANOMALY": 67.2301, "EPHEMERIS_TYPE": 0, "CLASSIFICATION_TYPE": "U", "NORAD_CAT_ID": 36397, "ELEMENT_SET_NO": 999, "REV_AT_EPOCH": 5774, "BSTAR": 0, "MEAN_MOTION_DOT": -2.42e-06, "MEAN_MOTION_DDOT": 0}, "tle": {"line1": "1 36397U 10006A   25342.90844185 -.00000242  00000+0  00000+0 0  9997", "line2": "2 36397   0.0166 307.3577 0002304 314.1597  67.2301  1.00270382 57749"}}, "geometry": {"type": "Point", "coordinates": [117.48023925340105, 0.013098083498606358]}}, {"type": "Feature", "properties": {"norad_id": 37185, "name": "XM-5", "group": "intelsat", "lat": 0.03340641543503315, "lon": 78.48453142108217, "alt_km": 35785.30354329177, "timestamp": "2025-12-09T07:41:32.871142+00:00", "meta": {"OBJECT_NAME": "XM-5", "OBJECT_ID": "2010-053A", "EPOCH": "2025-12-08T16:28:50.714976", "MEAN_MOTION": 1.00269412, "ECCENTRICITY": 0.00017944, "INCLINATION": 0.0644, "RA_OF_ASC_NODE": 272.5939, "ARG_OF_PERICENTER": 245.1289, "MEAN_ANOMALY": 51.9903, "EPHEMERIS_TYPE": 0, "CLASSIFICATION_TYPE": "U", "NORAD_CAT_ID": 37185, "ELEMENT_SET_NO": 999, "REV_AT_EPOCH": 5557, "BSTAR": 0, "MEAN_MOTION_DOT": -2.1e-07, "MEAN_MOTION_DDOT": 0}, "tle": {"line1": "1 37185U 10053A   25342.68669809 -.00000021  00000+0  00000+0 0  9993", "line2": "2 37185   0.0644 272.5939 0001794 245.1289  51.9903  1.00269412 55573"}}, "geometry": {"type": "Point", "coordinates": [78.48453142108217, 0.03340641543503315]}}, {"type": "Feature", "properties": {"norad_id": 37238, "name": "INTELSAT 17 (IS-17)", "group": "intelsat", "lat": -0.019673478699747216, "lon": -100.2896658569601, "alt_km": 35775.519737026065, "timestamp": "2025-12-09T07:41:32.871154+00:00", "meta": {"OBJECT_NAME": "INTELSAT 17 (IS-17)", "OBJECT_ID": "2010-065B", "EPOCH": "2025-12-08T22:34:38.601120", "MEAN_MOTION": 1.00271715, "ECCENTRICITY": 0.00025004, "INCLINATION": 0.0162, "RA_OF_ASC_NODE": 282.4761, "ARG_OF_PERICENTER": 333.8384, "MEAN_ANOMALY": 226.2973, "EPHEMERIS_TYPE": 0, "CLASSIFICATION_TYPE": "U", "NORAD_CAT_ID": 37238, "ELEMENT_SET_NO": 999, "REV_AT_EPOCH": 5134, "BSTAR": 0, "MEAN_MOTION_DOT": 0, "MEAN_MOTION_DDOT": 0}, "tle": {"line1": "1 37238U 10065B   25342.94072455  .00000000  00000+0  00000+0 0  9995", "line2": "2 37238   0.0162 282.4761 0002500 333.8384 226.2973  1.00271715 51341"}}, "geometry": {"type": "Point", "coordinates": [-100.2896658569601, -0.019673478699747216]}}, {"type": "Feature", "properties": {"norad_id": 37392, "name": "INTELSAT 28 (IS-28)", "group": "intelsat", "lat": 1.282270810369205, "lon": 161.9487416061633, "alt_km": 35789.07615579008, "timestamp": "2025-12-09T07:41:32.871166+00:00", "meta": {"OBJECT_NAME": "INTELSAT 28 (IS-28)", "OBJECT_ID": "2011-016A", "EPOCH": "2025-12-08T22:00:53.156160", "MEAN_MOTION": 1.00272302, "ECCENTRICITY": 0.00040046, "INCLINATION": 1.3147, "RA_OF_ASC_NODE": 85.1001, "ARG_OF_PERICENTER": 178.024, "MEAN_ANOMALY": 113.3112, "EPHEMERIS_TYPE": 0, "CLASSIFICATION_TYPE": "U", "NORAD_CAT_ID": 37392, "ELEMENT_SET_NO": 999, "REV_AT_EPOCH": 5137, "BSTAR": 0, "MEAN_MOTION_DOT": -2.23e-06, "MEAN_MOTION_DDOT": 0}, "tle": {"line1": "1 37392U 11016A   25342.91728190 -.00000223  00000+0  00000+0 0  9992", "line2": "2 37392   1.3147  85.1001 0004004 178.0240 113.3112  1.00272302 51372"}}, "geometry": {"type": "Point", "coordinates": [161.9487416061633, 1.282270810369205]}}]}